IRIDIUM 155             
1 43573U 18061E   19228.86326827  .00000052  00000-0  11536-4 0  9999
2 43573  86.3979  19.9318 0001686 108.0271 252.1108 14.34216189 55555
IRIDIUM 154             
1 43574U 18061F   19228.84424063  .00000049  00000-0  10318-4 0  9992
2 43574  86.3984  19.9555 0002307  84.0372 276.1087 14.34217925 55608
IRIDIUM 163             
1 43575U 18061G   19228.89498350  .00000045  00000-0  88431-5 0  9996
2 43575  86.3982  19.9253 0002926  96.4884 263.6645 14.34219010 55589
IRIDIUM 156             
1 43576U 18061H   19228.86960913  .00000044  00000-0  86596-5 0  9992
2 43576  86.3981  19.9402 0002338 102.1983 257.9474 14.34216050 55573
IRIDIUM 164             
1 43577U 18061J   19228.85058194  .00000043  00000-0  83235-5 0  9997
2 43577  86.3983  19.9508 0002377  88.5082 271.6386 14.34216848 55618
IRIDIUM 159             
1 43578U 18061K   19228.88863460  .00000045  00000-0  90318-5 0  9993
2 43578  86.3981  19.9240 0002273  87.8604 272.2852 14.34217827 55586
IRIDIUM 180             
1 43922U 19002A   19228.74859958  .00000063  00000-0  15564-4 0  9993
2 43922  86.3994 316.8255 0003281  76.3136 283.8425 14.34215945 31173
IRIDIUM 176             
1 43923U 19002B   19228.77300045  .00000103  00000-0  12450-4 0  9991
2 43923  86.6128 316.8333 0002701  96.6788 263.4737 14.72249389 31954
IRIDIUM 168             
1 43924U 19002C   19228.88180029  .00000050  00000-0  10700-4 0  9999
2 43924  86.3996 316.7764 0002428  85.5979 274.5494 14.34218457 31174
IRIDIUM 173             
1 43925U 19002D   19228.79934822  .00000060  00000-0  14332-4 0  9994
2 43925  86.3993 316.8011 0002394  90.0406 270.1064 14.34217299 31152
IRIDIUM 169             
1 43926U 19002E   19228.82614747  .00000059  00000-0  13220-4 0  9993
2 43926  87.4076 338.8356 0000393 246.4309 113.6849 14.38625170 31325
IRIDIUM 172             
1 43927U 19002F   19228.86275973  .00000063  00000-0  15323-4 0  9993
2 43927  86.3993 316.7748 0002509  86.6769 273.4713 14.34220011 31165
IRIDIUM 175             
1 43928U 19002G   19228.76680435  .00000078  00000-0  83959-5 0  9993
2 43928  86.6111 316.7876 0001561 111.2461 248.8923 14.72253126 31944
IRIDIUM 171             
1 43929U 19002H   19228.77397488  .00000064  00000-0  15946-4 0  9993
2 43929  86.4003 316.8407 0002346  85.4853 274.6611 14.34218330 31142
IRIDIUM 170             
1 43930U 19002J   19228.77917088  .00000109  00000-0  13313-4 0  9995
2 43930  86.6128 316.8382 0002479 102.4674 257.6820 14.72249276 31962
IRIDIUM 167             
1 43931U 19002K   19228.76763358  .00000070  00000-0  17848-4 0  9998
2 43931  86.3994 316.8151 0003101  75.4114 284.7426 14.34217995 31140
